{
    "links": {
        "self": "http://www.neowsapp.com/rest/v1/neo/54016578?api_key=iIulBulltgU6a56xZRHN4H3l9WmuAYTsLGpBGhQ2"
    },
    "id": "54016578",
    "neo_reference_id": "54016578",
    "name": "(2020 HC1)",
    "designation": "2020 HC1",
    "nasa_jpl_url": "http://ssd.jpl.nasa.gov/sbdb.cgi?sstr=54016578",
    "absolute_magnitude_h": 23.256,
    "estimated_diameter": {
        "kilometers": {
            "estimated_diameter_min": 0.0593410158,
            "estimated_diameter_max": 0.1326905453
        },
        "meters": {
            "estimated_diameter_min": 59.3410158418,
            "estimated_diameter_max": 132.6905452761
        },
        "miles": {
            "estimated_diameter_min": 0.0368727864,
            "estimated_diameter_max": 0.0824500568
        },
        "feet": {
            "estimated_diameter_min": 194.6883784143,
            "estimated_diameter_max": 435.3364485636
        }
    },
    "is_potentially_hazardous_asteroid": false,
    "close_approach_data": [
        {
            "close_approach_date": "1944-05-22",
            "close_approach_date_full": "1944-May-22 18:05",
            "epoch_date_close_approach": -808206900000,
            "relative_velocity": {
                "kilometers_per_second": "12.4368927818",
                "kilometers_per_hour": "44772.8140144192",
                "miles_per_hour": "27820.0854635706"
            },
            "miss_distance": {
                "astronomical": "0.0835631029",
                "lunar": "32.5060470281",
                "kilometers": "12500862.204430823",
                "miles": "7767675.5819304374"
            },
            "orbiting_body": "Earth"
        },
        {
            "close_approach_date": "2020-05-03",
            "close_approach_date_full": "2020-May-03 22:35",
            "epoch_date_close_approach": 1588545300000,
            "relative_velocity": {
                "kilometers_per_second": "15.0095277497",
                "kilometers_per_hour": "54034.2998990492",
                "miles_per_hour": "33574.8126233842"
            },
            "miss_distance": {
                "astronomical": "0.0707089461",
                "lunar": "27.5057800329",
                "kilometers": "10577907.726504807",
                "miles": "6572807.0761360566"
            },
            "orbiting_body": "Earth"
        },
        {
            "close_approach_date": "2107-09-06",
            "close_approach_date_full": "2107-Sep-06 16:27",
            "epoch_date_close_approach": 4344769620000,
            "relative_velocity": {
                "kilometers_per_second": "21.996179813",
                "kilometers_per_hour": "79186.2473269274",
                "miles_per_hour": "49203.2546237789"
            },
            "miss_distance": {
                "astronomical": "0.4291430026",
                "lunar": "166.9366280114",
                "kilometers": "64198879.114364462",
                "miles": "39891333.6959430956"
            },
            "orbiting_body": "Earth"
        },
        {
            "close_approach_date": "2110-04-16",
            "close_approach_date_full": "2110-Apr-16 04:31",
            "epoch_date_close_approach": 4427065860000,
            "relative_velocity": {
                "kilometers_per_second": "22.305514524",
                "kilometers_per_hour": "80299.8522865498",
                "miles_per_hour": "49895.2054388287"
            },
            "miss_distance": {
                "astronomical": "0.3359784061",
                "lunar": "130.6955999729",
                "kilometers": "50261653.918555007",
                "miles": "31231143.5376208166"
            },
            "orbiting_body": "Earth"
        }
    ],
    "orbital_data": {
        "orbit_id": "5",
        "orbit_determination_date": "2020-05-04 06:01:37",
        "first_observation_date": "2020-04-03",
        "last_observation_date": "2020-05-04",
        "data_arc_in_days": 31,
        "observations_used": 35,
        "orbit_uncertainty": "6",
        "minimum_orbit_intersection": ".0352937",
        "jupiter_tisserand_invariant": "3.618",
        "epoch_osculation": "2459000.5",
        "eccentricity": ".5457837885041851",
        "semi_major_axis": "1.99199225689931",
        "inclination": "14.06583159934321",
        "ascending_node_longitude": "56.10013393968011",
        "orbital_period": "1026.904118822568",
        "perihelion_distance": ".9047951762578028",
        "perihelion_argument": "213.8152543152873",
        "aphelion_distance": "3.079189337540818",
        "perihelion_time": "2459005.963720295209",
        "mean_anomaly": "358.0845930304278",
        "mean_motion": ".3505682696187549",
        "equinox": "J2000",
        "orbit_class": {
            "orbit_class_type": "APO",
            "orbit_class_description": "Near-Earth asteroid orbits which cross the Earth’s orbit similar to that of 1862 Apollo",
            "orbit_class_range": "a (semi-major axis) > 1.0 AU; q (perihelion) < 1.017 AU"
        }
    },
    "is_sentry_object": false
}